[{"OBJECT_NAME":"STARLINK-3672","OBJECT_ID":"2022-025U","EPOCH":"2026-03-09T06:50:30.117984","MEAN_MOTION":15.06421762,"ECCENTRICITY":0.00016158,"INCLINATION":53.0558,"RA_OF_ASC_NODE":32.701,"ARG_OF_PERICENTER":75.7429,"MEAN_ANOMALY":284.374,"EPHEMERIS_TYPE":0,"CLASSIFICATION_TYPE":"U","NORAD_CAT_ID":51974,"ELEMENT_SET_NO":999,"REV_AT_EPOCH":22085,"BSTAR":0.00017516348,"MEAN_MOTION_DOT":2.33e-5,"MEAN_MOTION_DDOT":0},{"OBJECT_NAME":"OBJECT B","OBJECT_ID":"2025-226B","EPOCH":"2026-03-09T23:02:31.139232","MEAN_MOTION":15.09715314,"ECCENTRICITY":0.00204156,"INCLINATION":97.6443,"RA_OF_ASC_NODE":147.8366,"ARG_OF_PERICENTER":114.3969,"MEAN_ANOMALY":245.9393,"EPHEMERIS_TYPE":0,"CLASSIFICATION_TYPE":"U","NORAD_CAT_ID":65939,"ELEMENT_SET_NO":999,"REV_AT_EPOCH":2260,"BSTAR":0.00038297064,"MEAN_MOTION_DOT":6.14e-5,"MEAN_MOTION_DDOT":0}]
